STARLINK-34159          
1 63952U 25099A   26068.30178809  .00034728  00000+0  12654-2 0  9991
2 63952  42.9985 178.7036 0000711 166.2044 193.8827 15.27585855 47266
COSMOS 2588             
1 64095U 25109A   26068.81179522  .00009169  00000+0  32611-3 0  9998
2 64095  72.9704  73.5401 0005019 308.6780  51.3966 15.29122656 44425
